STARLINK-5495           
1 55635U 23021H   26068.70642461  .00000104  00000+0  16540-4 0  9998
2 55635  70.0007 184.4286 0003592 276.1302  83.9448 14.98345366168799
CENTAURI-7              
1 62708U 25009DD  26068.76467094  .00005487  00000+0  48082-3 0  9992
2 62708  97.7123 150.3372 0001973 133.1699 226.9688 14.97068612 62583
